KMTC 012356Z 00000KT 10SM FEW160 SCT200 15/03 A3001 RMK AO2A SLP169 T01490031 10167 20148 52008 $
KMTC
2020-05-01T23:56:00Z
42.62
-82.82
14.9
3.1
0
0

10.0
30.008858
1016.9


TRUE
TRUE





FEW
16000
SCT
20000




VFR
0.8
16.7
14.8








METAR
177.0

-------------------------
1 KD98 0 42.79633 -82.97426
11 K57D 0 42.73675 -82.88884
11 KMTC 0 42.61389 -82.83691
1 KDTW 0 42.21242 -83.35339
